STARLINK-2279           
1 47991U 21024Q   22229.76492847  .00002335  00000+0  17560-3 0  9997
2 47991  53.0542 337.2300 0001239 102.4647 257.6481 15.06396913 79145
STARLINK-2229           
1 47992U 21024R   22230.11739915  .00001089  00000+0  91963-4 0  9994
2 47992  53.0562 330.7164 0001260  79.3011 280.8120 15.06399711 79276
STARLINK-2273           
1 47993U 21024S   22230.12475874  .00001033  00000+0  88254-4 0  9995
2 47993  53.0568  10.6078 0001337  87.8427 272.2715 15.06398845 78722
STARLINK-2290           
1 47994U 21024T   22230.12892665 -.00000845  00000+0 -37862-4 0  9998
2 47994  53.0552  25.5794 0001482  95.7923 264.3235 15.06400715 78512
STARLINK-2309           
1 47995U 21024U   22229.54058039  .00002796  00000+0  20654-3 0  9997
2 47995  53.0542 353.5288 0001374  91.4027 268.7119 15.06402766 79385
STARLINK-2260           
1 47996U 21024V   22229.66667824 -.00028571  00000+0 -19061-2 0  9999
2 47996  53.0533 277.9466 0001302  67.2566  29.5701 15.06414924  1309
STARLINK-2266           
1 47997U 21024W   22229.51335784  .00001226  00000+0  10116-3 0  9990
2 47997  53.0546  28.3314 0001261 104.0128 256.1001 15.06396476 78948
STARLINK-2296           
1 47998U 21024X   22229.45487428  .00000676  00000+0  64277-4 0  9993
2 47998  53.0555   3.8432 0001397  90.1704 269.9445 15.06396414 79221
STARLINK-2218           
1 47999U 21024Y   22229.47141065  .00001534  00000+0  12187-3 0  9996
2 47999  53.0538 333.5244 0001328 112.9761 247.1369 15.06398121 79643
STARLINK-2270           
1 48000U 21024Z   22230.26439029 -.00000042  00000+0  16093-4 0  9994
2 48000  53.0559 315.1811 0001340  71.3900 288.7234 15.06401374 79516
STARLINK-2265           
1 48002U 21024AB  22229.49589121 -.00000466  00000+0 -12378-4 0  9991
2 48002  53.0551 338.7453 0001261  72.8601 287.2526 15.06396415 79101
STARLINK-2263           
1 48003U 21024AC  22229.48341158  .00001332  00000+0  10831-3 0  9999
2 48003  53.0550  53.4809 0001460  78.9868 281.1286 15.06403807 78053
STARLINK-2254           
1 48005U 21024AE  22230.19018682  .00001103  00000+0  92931-4 0  9992
2 48005  53.0555  20.2927 0001145  91.4691 268.6429 15.06401745 78594
STARLINK-2271           
1 48008U 21024AH  22230.27816608  .00001039  00000+0  88643-4 0  9991
2 48008  53.0567 314.9077 0001319  84.5010 275.6129 15.06400455 79515
STARLINK-2153           
1 48009U 21024AJ  22229.54054780  .00001158  00000+0  96610-4 0  9990
2 48009  53.0572  33.2297 0001521  59.7625 300.3515 15.06407160 78826
STARLINK-2226           
1 48010U 21024AK  22230.21690885  .00002020  00000+0  15443-3 0  9993
2 48010  53.0555  50.1745 0001407  98.3491 261.7658 15.06405630 78163
STARLINK-2272           
1 48011U 21024AL  22230.17357202  .00002464  00000+0  18420-3 0  9992
2 48011  53.0562  30.3889 0001303  78.6066 281.5069 15.06411213 78457
STARLINK-2216           
1 48012U 21024AM  22229.49432469  .00019065  00000+0  38051-3 0  9992
2 48012  53.0542 322.4275 0002801 303.2960  56.7778 15.46891909 79340
STARLINK-2243           
1 48013U 21024AN  22230.12981929  .00002249  00000+0  16976-3 0  9993
2 48013  53.0550  15.5833 0001208 100.0149 260.0977 15.06411625 78655
STARLINK-2283           
1 48014U 21024AP  22230.27866932  .00000737  00000+0  68372-4 0  9994
2 48014  53.0555 340.0657 0001242  60.3540 299.7572 15.06401295 79150
STARLINK-2284           
1 48016U 21024AR  22229.44519793  .00005975  00000+0  41961-3 0  9996
2 48016  53.0550 328.8501 0001187  85.6349 274.4776 15.06404508 79767
STARLINK-2282           
1 48018U 21024AT  22230.23122162  .00001996  00000+0  15285-3 0  9996
2 48018  53.0555  35.3169 0001584  80.5406 279.5762 15.06395489 78388
STARLINK-2285           
1 48019U 21024AU  22229.64973652 -.00000214  00000+0  45070-5 0  9998
2 48019  53.0542  27.7194 0001343  73.6444 286.4692 15.06396214 78449
STARLINK-2294           
1 48020U 21024AV  22229.82532841  .00001680  00000+0  13164-3 0  9995
2 48020  53.0553 342.3366 0001534  86.1170 273.9995 15.06401876 79086
STARLINK-2301           
1 48021U 21024AW  22229.97041903  .00001878  00000+0  14498-3 0  9996
2 48021  53.0566 346.3041 0001458  48.3139 311.7974 15.06390316 79056
STARLINK-2298           
1 48022U 21024AX  22230.19712311  .00000886  00000+0  78334-4 0  9999
2 48022  53.0562  45.5544 0001118  95.9789 264.1328 15.06405792 78239
STARLINK-2292           
1 48023U 21024AY  22230.18603802  .00001940  00000+0  14912-3 0  9996
2 48023  53.0560  45.3300 0001389 100.9275 259.1871 15.06402068 78233
STARLINK-2278           
1 48026U 21024BB  22229.50184591  .00000260  00000+0  36368-4 0  9996
2 48026  53.0547  53.3809 0001332  95.3697 264.7443 15.06396768 78053
STARLINK-2300           
1 48027U 21024BC  22230.25791341 -.00002096  00000+0 -12179-3 0  9992
2 48027  53.0533  24.9894 0001826 101.4149 258.7045 15.06415001 78521
STARLINK-2264           
1 48028U 21024BD  22229.44567750  .00005998  00000+0  42120-3 0  9998
2 48028  53.0554 344.0415 0001438  79.0708 281.0443 15.06402968 79025
STARLINK-2299           
1 48029U 21024BE  22229.56681394  .00000573  00000+0  57367-4 0  9997
2 48029  53.0534  48.0989 0001316  71.9720 288.1413 15.06393027 78671
STARLINK-2268           
1 48030U 21024BF  22229.52763683  .00002264  00000+0  17084-3 0  9997
2 48030  53.0557  53.2709 0001526  83.2663 276.8500 15.06401626 78532
STARLINK-2267           
1 48031U 21024BG  22229.49954977  .00000329  00000+0  41022-4 0  9992
2 48031  53.0546 298.4091 0001710  63.6755 296.4409 15.06401071 79673
STARLINK-2286           
1 48033U 21024BJ  22229.48939996  .00002044  00000+0  15602-3 0  9997
2 48033  53.0546  48.4585 0001354  89.5590 270.5554 15.06407017 78662
STARLINK-2288           
1 48034U 21024BK  22229.90592276  .00000783  00000+0  71502-4 0  9991
2 48034  53.0555  46.5800 0001304  75.3962 284.7172 15.06385707 78195
STARLINK-2295           
1 48036U 21024BM  22230.17867140 -.00001150  00000+0 -58309-4 0  9990
2 48036  53.0539  45.3673 0001690  73.7244 286.3931 15.06399981 78232
STARLINK-2048           
1 48092U 21027A   22229.25490820  .00000925  00000+0  80961-4 0  9995
2 48092  53.0551 174.7831 0001530  74.5457 285.5701 15.06407327 77452
STARLINK-2404           
1 48093U 21027B   22230.21279455 -.00000125  00000+0  10512-4 0  9991
2 48093  53.0543 235.4037 0001526  70.0938 290.0215 15.06394752 76296
STARLINK-2412           
1 48094U 21027C   22230.23027957 -.00000270  00000+0  77185-6 0  9994
2 48094  53.0531 245.1325 0001382  65.6823 294.4310 15.06389700 76162
STARLINK-2414           
1 48095U 21027D   22230.03860614  .00004056  00000+0  29094-3 0  9996
2 48095  53.0528 245.9762 0001543  67.8762 292.2391 15.06411871 76134
STARLINK-2417           
1 48096U 21027E   22230.27822099  .00004144  00000+0  29696-3 0  9994
2 48096  53.0526 244.9031 0001347  76.0759 284.0380 15.06393657 76162
STARLINK-2418           
1 48097U 21027F   22229.39540695  .00001516  00000+0  12062-3 0  9994
2 48097  53.0536 228.8790 0001398  76.5362 283.5783 15.06405008 76714
STARLINK-2421           
1 48098U 21027G   22230.23487881  .00002023  00000+0  15468-3 0  9994
2 48098  53.0532 235.1100 0001521  70.5778 289.5375 15.06397581 76359
STARLINK-2428           
1 48099U 21027H   22230.22290096  .00001760  00000+0  13700-3 0  9998
2 48099  53.0539 245.1605 0001332  70.7036 289.4097 15.06402232 76155
STARLINK-2430           
1 48100U 21027J   22229.38803843  .00000062  00000+0  23049-4 0  9998
2 48100  53.0529 228.9101 0001682  81.5872 278.5308 15.06403225 76712
STARLINK-2436           
1 48101U 21027K   22229.50412435 -.00000099  00000+0  12281-4 0  9993
2 48101  53.0531 238.3911 0001366  70.2359 289.8777 15.06405349 76594
STARLINK-2437           
1 48102U 21027L   22229.28115348 -.00000069  00000+0  14243-4 0  9999
2 48102  53.0525 229.3928 0001472  75.4513 284.6639 15.06406934 76695
STARLINK-2438           
1 48103U 21027M   22230.22012116  .00000021  00000+0  20340-4 0  9997
2 48103  53.0546 225.1896 0001630  55.3805 304.7338 15.06392107 76432
STARLINK-2439           
1 48104U 21027N   22230.22981260  .00000701  00000+0  65955-4 0  9999
2 48104  53.0527 230.1309 0001310  82.6290 277.4848 15.06399562 76370
STARLINK-2440           
1 48105U 21027P   22229.27468963  .00000658  00000+0  63044-4 0  9991
2 48105  53.0544 179.4189 0001600  74.2672 285.8494 15.06403275 77394
STARLINK-2442           
1 48106U 21027Q   22230.25422891  .00002834  00000+0  20902-3 0  9995
2 48106  53.0534 225.0313 0001663  73.6579 286.4593 15.06411461 76447
STARLINK-2443           
1 48107U 21027R   22229.47280388 -.00000056  00000+0  15125-4 0  9998
2 48107  53.0534 228.5289 0001624  67.2538 292.8622 15.06408186 76724
STARLINK-2444           
1 48108U 21027S   22229.44609445  .00000016  00000+0  19961-4 0  9992
2 48108  53.0528 238.6494 0001448  78.1002 282.0149 15.06394933 76571
STARLINK-2445           
1 48109U 21027T   22229.32722123  .00001918  00000+0  14763-3 0  9995
2 48109  53.0538 249.1777 0001718  61.4874 298.6288 15.06406384 76421
STARLINK-2447           
1 48110U 21027U   22229.43503328  .00000079  00000+0  24196-4 0  9992
2 48110  53.0538 238.6937 0001529  74.1175 285.9982 15.06396819 76587
STARLINK-2448           
1 48111U 21027V   22230.22381380  .00002103  00000+0  15998-3 0  9993
2 48111  53.0548 235.1305 0001509  74.9167 285.1989 15.06408070 76309
STARLINK-2449           
1 48112U 21027W   22230.21692822  .00001875  00000+0  14472-3 0  9990
2 48112  53.0544 250.3441 0001685  66.7680 293.3487 15.06403484 76083
STARLINK-2450           
1 48113U 21027X   22230.28555979  .00004049  00000+0  29048-3 0  9990
2 48113  53.0533 244.8763 0001572  72.2050 287.9110 15.06407348 76169
STARLINK-2451           
1 48114U 21027Y   22230.18002911  .00000461  00000+0  49826-4 0  9994
2 48114  53.0528 240.3466 0001050  79.8284 280.2823 15.06401064 76221
STARLINK-2452           
1 48115U 21027Z   22230.20813781  .00000485  00000+0  51442-4 0  9996
2 48115  53.0536 235.2248 0001609  66.5638 293.5520 15.06397933 76295
